start=new Date('2022-05-13T00:00:00.000Z').valueOf();
sats=[{"BSTAR":"0.00011713000000","TLE_LINE1":"1 47909U 21021BB  22132.52154488  .00001464  00000-0  11713-3 0  9993","MEAN_ANOMALY":"309.9472","TIME_SYSTEM":"UTC","CLASSIFICATION_TYPE":"U","ECCENTRICITY":"0.00018650","PERIOD":"95.592","RA_OF_ASC_NODE":"63.7567","ELEMENT_SET_NO":"999","SITE":"AFETR","NORAD_CAT_ID":"47909","APOAPSIS":"548.500","OBJECT_TYPE":"PAYLOAD","OBJECT_NAME":"STARLINK-2369","GP_ID":"203366455","SEMIMAJOR_AXIS":"6925.343","CENTER_NAME":"EARTH","MEAN_MOTION_DOT":"0.00001464","MEAN_MOTION_DDOT":"0.0000000000000","DECAY_DATE":null,"PERIAPSIS":"545.917","EPHEMERIS_TYPE":"0","ARG_OF_PERICENTER":"50.1681","MEAN_MOTION":"15.06401696","COUNTRY_CODE":"US","OBJECT_ID":"2021-021BB","INCLINATION":"53.0561","RCS_SIZE":"LARGE","MEAN_ELEMENT_THEORY":"SGP4","LAUNCH_DATE":"2021-03-14","REF_FRAME":"TEME","FILE":"3442533","REV_AT_EPOCH":"6576","EPOCH":"2022-05-12T12:31:01.477632","TLE_LINE2":"2 47909  53.0561  63.7567 0001865  50.1681 309.9472 15.06401696 65762"},{"RCS_SIZE":"LARGE","MEAN_ELEMENT_THEORY":"SGP4","COUNTRY_CODE":"US","INCLINATION":"53.0572","OBJECT_ID":"2021-021BC","MEAN_MOTION":"15.06396869","EPHEMERIS_TYPE":"0","ARG_OF_PERICENTER":"62.7612","PERIAPSIS":"546.004","DECAY_DATE":null,"MEAN_MOTION_DDOT":"0.0000000000000","CENTER_NAME":"EARTH","MEAN_MOTION_DOT":"0.00001453","TLE_LINE2":"2 47910  53.0572  62.4002 0001761  62.7612 297.3556 15.06396869 65661","EPOCH":"2022-05-12T19:44:54.257280","REV_AT_EPOCH":"6566","FILE":"3442534","REF_FRAME":"TEME","LAUNCH_DATE":"2021-03-14","ECCENTRICITY":"0.00017610","CLASSIFICATION_TYPE":"U","PERIOD":"95.592","TIME_SYSTEM":"UTC","MEAN_ANOMALY":"297.3556","TLE_LINE1":"1 47910U 21021BC  22132.82285020  .00001453  00000-0  11646-3 0  9998","BSTAR":"0.00011646000000","SEMIMAJOR_AXIS":"6925.358","GP_ID":"203390865","OBJECT_TYPE":"PAYLOAD","OBJECT_NAME":"STARLINK-2370","NORAD_CAT_ID":"47910","APOAPSIS":"548.443","SITE":"AFETR","RA_OF_ASC_NODE":"62.4002","ELEMENT_SET_NO":"999"},{"SEMIMAJOR_AXIS":"6925.357","GP_ID":"203392116","OBJECT_TYPE":"PAYLOAD","OBJECT_NAME":"STARLINK-2371","SITE":"AFETR","APOAPSIS":"548.427","NORAD_CAT_ID":"47911","ELEMENT_SET_NO":"999","RA_OF_ASC_NODE":"77.1334","PERIOD":"95.592","CLASSIFICATION_TYPE":"U","ECCENTRICITY":"0.00017400","MEAN_ANOMALY":"302.5481","TIME_SYSTEM":"UTC","TLE_LINE1":"1 47911U 21021BD  22132.88228716  .00002130  00000-0  16189-3 0  9994","BSTAR":"0.00016189000000","TLE_LINE2":"2 47911  53.0552  77.1334 0001740  57.5676 302.5481 15.06397373 65296","REV_AT_EPOCH":"6529","EPOCH":"2022-05-12T21:10:29.610624","REF_FRAME":"TEME","FILE":"3442534","LAUNCH_DATE":"2021-03-14","INCLINATION":"53.0552","OBJECT_ID":"2021-021BD","COUNTRY_CODE":"US","MEAN_ELEMENT_THEORY":"SGP4","RCS_SIZE":"LARGE","ARG_OF_PERICENTER":"57.5676","EPHEMERIS_TYPE":"0","MEAN_MOTION":"15.06397373","DECAY_DATE":null,"PERIAPSIS":"546.017","MEAN_MOTION_DOT":"0.00002130","CENTER_NAME":"EARTH","MEAN_MOTION_DDOT":"0.0000000000000"},{"EPOCH":"2022-05-12T19:35:38.509152","REV_AT_EPOCH":"6549","TLE_LINE2":"2 47912  53.0569  62.4299 0001867  52.9519 307.1640 15.06404307 65493","LAUNCH_DATE":"2021-03-14","FILE":"3442534","REF_FRAME":"TEME","MEAN_MOTION":"15.06404307","EPHEMERIS_TYPE":"0","ARG_OF_PERICENTER":"52.9519","RCS_SIZE":"LARGE","MEAN_ELEMENT_THEORY":"SGP4","COUNTRY_CODE":"US","INCLINATION":"53.0569","OBJECT_ID":"2021-021BE","MEAN_MOTION_DDOT":"0.0000000000000","MEAN_MOTION_DOT":"0.00000590","CENTER_NAME":"EARTH","PERIAPSIS":"545.907","DECAY_DATE":null,"OBJECT_NAME":"STARLINK-2372","OBJECT_TYPE":"PAYLOAD","GP_ID":"203391866","SEMIMAJOR_AXIS":"6925.335","RA_OF_ASC_NODE":"62.4299","ELEMENT_SET_NO":"999","NORAD_CAT_ID":"47912","APOAPSIS":"548.493","SITE":"AFETR","MEAN_ANOMALY":"307.1640","TIME_SYSTEM":"UTC","CLASSIFICATION_TYPE":"U","ECCENTRICITY":"0.00018670","PERIOD":"95.592","BSTAR":"0.00005853800000","TLE_LINE1":"1 47912U 21021BE  22132.81641793  .00000590  00000-0  58538-4 0  9995"},{"FILE":"3442533","REF_FRAME":"TEME","LAUNCH_DATE":"2021-03-14","TLE_LINE2":"2 47913  53.0564  74.9978 0002285  48.3256 311.7928 15.06407497 65430","EPOCH":"2022-05-12T05:55:33.736800","REV_AT_EPOCH":"6543","PERIAPSIS":"545.608","DECAY_DATE":null,"MEAN_MOTION_DDOT":"0.0000000000000","MEAN_MOTION_DOT":"0.00000418","CENTER_NAME":"EARTH","RCS_SIZE":"LARGE","MEAN_ELEMENT_THEORY":"SGP4","COUNTRY_CODE":"US","INCLINATION":"53.0564","OBJECT_ID":"2021-021BF","MEAN_MOTION":"15.06407497","EPHEMERIS_TYPE":"0","ARG_OF_PERICENTER":"48.3256","NORAD_CAT_ID":"47913","APOAPSIS":"548.773","SITE":"AFETR","RA_OF_ASC_NODE":"74.9978","ELEMENT_SET_NO":"999","GP_ID":"203366954","SEMIMAJOR_AXIS":"6925.326","OBJECT_TYPE":"PAYLOAD","OBJECT_NAME":"STARLINK-2374","TLE_LINE1":"1 47913U 21021BF  22132.24691825  .00000418  00000-0  46994-4 0  9996","BSTAR":"0.00004699400000","ECCENTRICITY":"0.00022850","CLASSIFICATION_TYPE":"U","PERIOD":"95.592","TIME_SYSTEM":"UTC","MEAN_ANOMALY":"311.7928"},{"ELEMENT_SET_NO":"999","RA_OF_ASC_NODE":"72.3212","SITE":"AFETR","APOAPSIS":"548.649","NORAD_CAT_ID":"47914","OBJECT_TYPE":"PAYLOAD","OBJECT_NAME":"STARLINK-2375","SEMIMAJOR_AXIS":"6925.226","GP_ID":"203391365","BSTAR":"-0.00025606000000","TLE_LINE1":"1 47914U 21021BG  22132.84128338 -.00004098  00000-0 -25606-3 0  9993","MEAN_ANOMALY":"313.9294","TIME_SYSTEM":"UTC","PERIOD":"95.590","ECCENTRICITY":"0.00022510","CLASSIFICATION_TYPE":"U","LAUNCH_DATE":"2021-03-14","REF_FRAME":"TEME","FILE":"3442534","REV_AT_EPOCH":"6551","EPOCH":"2022-05-12T20:11:26.884032","TLE_LINE2":"2 47914  53.0564  72.3212 0002251  46.1881 313.9294 15.06440138 65515","CENTER_NAME":"EARTH","MEAN_MOTION_DOT":"-0.00004098","MEAN_MOTION_DDOT":"0.0000000000000","DECAY_DATE":null,"PERIAPSIS":"545.532","ARG_OF_PERICENTER":"46.1881","EPHEMERIS_TYPE":"0","MEAN_MOTION":"15.06440138","INCLINATION":"53.0564","OBJECT_ID":"2021-021BG","COUNTRY_CODE":"US","MEAN_ELEMENT_THEORY":"SGP4","RCS_SIZE":"LARGE"},{"SEMIMAJOR_AXIS":"6925.338","GP_ID":"203365454","OBJECT_NAME":"STARLINK-2376","OBJECT_TYPE":"PAYLOAD","SITE":"AFETR","NORAD_CAT_ID":"47915","APOAPSIS":"548.503","RA_OF_ASC_NODE":"70.0168","ELEMENT_SET_NO":"999","ECCENTRICITY":"0.00018770","CLASSIFICATION_TYPE":"U","PERIOD":"95.592","TIME_SYSTEM":"UTC","MEAN_ANOMALY":"297.0125","TLE_LINE1":"1 47915U 21021BH  22132.24279834  .00000429  00000-0  47686-4 0  9991","BSTAR":"0.00004768600000","TLE_LINE2":"2 47915  53.0558  70.0168 0001877  63.1056 297.0125 15.06403493 65507","REV_AT_EPOCH":"6550","EPOCH":"2022-05-12T05:49:37.776576","REF_FRAME":"TEME","FILE":"3442533","LAUNCH_DATE":"2021-03-14","COUNTRY_CODE":"US","INCLINATION":"53.0558","OBJECT_ID":"2021-021BH","RCS_SIZE":"LARGE","MEAN_ELEMENT_THEORY":"SGP4","EPHEMERIS_TYPE":"0","ARG_OF_PERICENTER":"63.1056","MEAN_MOTION":"15.06403493","DECAY_DATE":null,"PERIAPSIS":"545.903","CENTER_NAME":"EARTH","MEAN_MOTION_DOT":"0.00000429","MEAN_MOTION_DDOT":"0.0000000000000"},{"REV_AT_EPOCH":"6577","EPOCH":"2022-05-12T19:31:39.967392","TLE_LINE2":"2 47916  53.0565  52.4423 0001855  54.8892 305.2271 15.06420587 65771","LAUNCH_DATE":"2021-03-14","REF_FRAME":"TEME","FILE":"3442534","ARG_OF_PERICENTER":"54.8892","EPHEMERIS_TYPE":"0","MEAN_MOTION":"15.06420587","OBJECT_ID":"2021-021BJ","INCLINATION":"53.0565","COUNTRY_CODE":"US","MEAN_ELEMENT_THEORY":"SGP4","RCS_SIZE":"LARGE","CENTER_NAME":"EARTH","MEAN_MOTION_DOT":"0.00008547","MEAN_MOTION_DDOT":"0.0000000000000","DECAY_DATE":null,"PERIAPSIS":"545.866","OBJECT_NAME":"STARLINK-2378","OBJECT_TYPE":"PAYLOAD","GP_ID":"203392367","SEMIMAJOR_AXIS":"6925.285","ELEMENT_SET_NO":"999","RA_OF_ASC_NODE":"52.4423","SITE":"AFETR","APOAPSIS":"548.435","NORAD_CAT_ID":"47916","MEAN_ANOMALY":"305.2271","TIME_SYSTEM":"UTC","PERIOD":"95.591","CLASSIFICATION_TYPE":"U","ECCENTRICITY":"0.00018550","BSTAR":"0.00059165000000","TLE_LINE1":"1 47916U 21021BJ  22132.81365703  .00008547  00000-0  59165-3 0  9999"},{"EPOCH":"2022-05-12T05:21:05.798592","REV_AT_EPOCH":"6553","TLE_LINE2":"2 47917  53.0548  65.0955 0001805  53.7332 306.3823 15.06401517 65536","LAUNCH_DATE":"2021-03-14","FILE":"3442533","REF_FRAME":"TEME","MEAN_MOTION":"15.06401517","EPHEMERIS_TYPE":"0","ARG_OF_PERICENTER":"53.7332","RCS_SIZE":"LARGE","MEAN_ELEMENT_THEORY":"SGP4","COUNTRY_CODE":"US","OBJECT_ID":"2021-021BK","INCLINATION":"53.0548","MEAN_MOTION_DDOT":"0.0000000000000","MEAN_MOTION_DOT":"0.00000520","CENTER_NAME":"EARTH","PERIAPSIS":"545.959","DECAY_DATE":null,"OBJECT_TYPE":"PAYLOAD","OBJECT_NAME":"STARLINK-2397","GP_ID":"203366456","SEMIMAJOR_AXIS":"6925.344","RA_OF_ASC_NODE":"65.0955","ELEMENT_SET_NO":"999","NORAD_CAT_ID":"47917","APOAPSIS":"548.459","SITE":"AFETR","TIME_SYSTEM":"UTC","MEAN_ANOMALY":"306.3823","ECCENTRICITY":"0.00018050","CLASSIFICATION_TYPE":"U","PERIOD":"95.592","BSTAR":"0.00005382600000","TLE_LINE1":"1 47917U 21021BK  22132.22298378  .00000520  00000-0  53826-4 0  9990"},{"EPOCH":"2022-05-12T19:51:33.785568","REV_AT_EPOCH":"6565","TLE_LINE2":"2 47918  53.0561  62.3862 0001906  51.3033 308.8127 15.06403712 65659","LAUNCH_DATE":"2021-03-14","FILE":"3442534","REF_FRAME":"TEME","MEAN_MOTION":"15.06403712","EPHEMERIS_TYPE":"0","ARG_OF_PERICENTER":"51.3033","RCS_SIZE":"LARGE","MEAN_ELEMENT_THEORY":"SGP4","COUNTRY_CODE":"US","OBJECT_ID":"2021-021BL","INCLINATION":"53.0561","MEAN_MOTION_DDOT":"0.0000000000000","MEAN_MOTION_DOT":"0.00000839","CENTER_NAME":"EARTH","PERIAPSIS":"545.882","DECAY_DATE":null,"OBJECT_TYPE":"PAYLOAD","OBJECT_NAME":"STARLINK-2398","GP_ID":"203390866","SEMIMAJOR_AXIS":"6925.337","RA_OF_ASC_NODE":"62.3862","ELEMENT_SET_NO":"999","NORAD_CAT_ID":"47918","APOAPSIS":"548.522","SITE":"AFETR","TIME_SYSTEM":"UTC","MEAN_ANOMALY":"308.8127","CLASSIFICATION_TYPE":"U","ECCENTRICITY":"0.00019060","PERIOD":"95.592","BSTAR":"0.00007521100000","TLE_LINE1":"1 47918U 21021BL  22132.82747437  .00000839  00000-0  75211-4 0  9997"}];
